{
    "CCSDS_OMM_VERS": "3.0",
    "COMMENT": "GENERATED VIA SPACE-TRACK.ORG API",
    "CREATION_DATE": "2025-11-23T23:16:19",
    "ORIGINATOR": "18 SPCS",
    "OBJECT_NAME": "NAVSTAR 84 (USA 545)",
    "OBJECT_ID": "2025-116A",
    "CENTER_NAME": "EARTH",
    "REF_FRAME": "TEME",
    "TIME_SYSTEM": "UTC",
    "MEAN_ELEMENT_THEORY": "SGP4",
    "EPOCH": "2025-11-23T16:08:57.796224",
    "MEAN_MOTION": "2.00559656",
    "ECCENTRICITY": "0.00039750",
    "INCLINATION": "55.0910",
    "RA_OF_ASC_NODE": "39.4120",
    "ARG_OF_PERICENTER": "309.7708",
    "MEAN_ANOMALY": "53.4490",
    "EPHEMERIS_TYPE": "0",
    "CLASSIFICATION_TYPE": "U",
    "NORAD_CAT_ID": "64202",
    "ELEMENT_SET_NO": "999",
    "REV_AT_EPOCH": "375",
    "BSTAR": "0.00000000000000",
    "MEAN_MOTION_DOT": "-0.00000064",
    "MEAN_MOTION_DDOT": "0.0000000000000",
    "SEMIMAJOR_AXIS": "26560.696",
    "PERIOD": "717.991",
    "APOAPSIS": "20193.119",
    "PERIAPSIS": "20172.003",
    "OBJECT_TYPE": "PAYLOAD",
    "RCS_SIZE": "LARGE",
    "COUNTRY_CODE": "US",
    "LAUNCH_DATE": "2025-05-30",
    "SITE": "AFETR",
    "DECAY_DATE": null,
    "FILE": "4896751",
    "GP_ID": "303362181",
    "TLE_LINE0": "0 NAVSTAR 84 (USA 545)",
    "TLE_LINE1": "1 64202U 25116A   25327.67289116 -.00000064  00000-0  00000+0 0  9998",
    "TLE_LINE2": "2 64202  55.0910  39.4120 0003975 309.7708  53.4490  2.00559656  3751"
}